satname,norad_id,inclination_deg,eccentricity,mean_motion_rev_per_day,perigee_km,apogee_km,l1,l2
STARLINK-1302,45375,53.0544,0.0001262,15.06432284,546.2386473938268,547.9865803963739,1 45375U 20019R   25304.66572512  .00016029  00000+0  10916-2 0  9990,2 45375  53.0544  25.8291 0001262  90.8654 269.2480 15.06432284310287
STARLINK-1304,45376,53.0543,0.0001423,15.06426262,546.1456042136888,548.1165355063713,1 45376U 20019S   25304.61781591  .00017870  00000+0  12147-2 0  9998,2 45376  53.0543  26.0411 0001423  78.9392 281.1757 15.06426262310277
STARLINK-1305,45377,53.0555,0.0001749,15.31244123,470.9011716552777,473.29738430531506,1 45377U 20019T   25304.49228559  .00005984  00000+0  20730-3 0  9996,2 45377  53.0555  24.3078 0001749  60.9258 299.1917 15.31244123310295
STARLINK-1319,45379,53.0538,9.94e-05,15.20934027,502.3379729458684,503.7059473471463,1 45379U 20019V   25304.91668980  .02025976  00000+0  81330-1 0  9997,2 45379  53.0538  24.3319 0000994  75.4155 200.0051 15.20934027  5843
STARLINK-1266,45383,53.0548,0.0001341,15.06420309,546.2206335828323,548.077995372375,1 45383U 20019Z   25304.57174451  .00013783  00000+0  94184-3 0  9993,2 45383  53.0548   6.2526 0001341 104.9052 255.2086 15.06420309310542
STARLINK-1267,45384,53.0554,0.0001414,15.06414704,546.1872547487492,548.1457305764743,1 45384U 20019AA  25304.49073760  .00015565  00000+0  10611-2 0  9998,2 45384  53.0554   7.2727 0001414  98.5968 261.5182 15.06414704310526
STARLINK-1272,45386,53.0552,0.00018,15.33515589,464.10133470536584,466.5649839627258,1 45386U 20019AC  25304.69025102  .00063351  00000+0  19232-2 0  9993,2 45386  53.0552   3.5463 0001800  40.3117 319.8017 15.33515589310596
STARLINK-1274,45387,53.0377,0.0003727,15.2889356,476.5629420224268,481.67434037737803,1 45387U 20019AD  25304.52383611  .00040469  00000+0  14269-2 0  9998,2 45387  53.0377 351.7182 0003727 241.9593 118.1029 15.28893560310747
STARLINK-1280,45388,53.0555,0.0001892,15.39093745,447.4962533121716,450.07956169717,1 45388U 20019AE  25304.63417463  .00082914  00000+0  20960-2 0  9990,2 45388  53.0555  23.3012 0001892  32.2564 327.8555 15.39093745310304
STARLINK-1283,45389,53.0533,0.0002913,15.30129378,473.42949920679894,477.4223849768623,1 45389U 20019AF  25304.59557544  .00053427  00000+0  18067-2 0  9993,2 45389  53.0533   2.5846 0002913  22.5703 337.5424 15.30129378310606
STARLINK-1284,45390,53.0552,0.0001442,15.06411805,546.1767475049419,548.1740075946273,1 45390U 20019AG  25304.44274302  .00017343  00000+0  11799-2 0  9999,2 45390  53.0552   6.8330 0001442 102.7905 257.3245 15.06411805310528
STARLINK-1292,45394,53.0438,0.0007583,15.95134507,282.88473606734624,292.99450787222486,1 45394U 20019AL  25304.91668980  .00469329  99943-4  11754-2 0  9999,2 45394  53.0438 314.5620 0007583  25.6060  80.6259 15.95134507  6043
STARLINK-1297,45395,53.0552,0.0001289,15.0639275,546.3410979398905,548.126458526518,1 45395U 20019AM  25304.61229656 -.00001297  00000+0 -68234-4 0  9996,2 45395  53.0552   6.0690 0001289  86.4196 273.6940 15.06392750309734
STARLINK-1307,45397,53.056,0.0001486,15.06425886,546.1031272062119,548.1613172190528,1 45397U 20019AP  25304.47222959  .00037877  00000+0  25463-2 0  9997,2 45397  53.0560   6.6994 0001486  98.8834 261.2323 15.06425886310358
STARLINK-1312,45398,53.0409,0.0005303,16.00860292,268.5085411675018,275.5617137258723,1 45398U 20019AQ  25304.83924422  .00684298  22555-3  12457-2 0  9999,2 45398  53.0409 314.1272 0005303  28.9363 331.1960 16.00860292311051
STARLINK-1255,45399,53.0514,0.0001157,15.29978369,475.08389011028976,476.66990892663944,1 45399U 20019AR  25304.40816899  .00021203  00000+0  73087-3 0  9996,2 45399  53.0514 354.5454 0001157  38.9549 321.1534 15.29978369310509
STARLINK-1260,45404,53.0549,0.0001281,15.06411817,546.2882082611395,548.0624732828455,1 45404U 20019AW  25304.53948884  .00001862  00000+0  14384-3 0  9991,2 45404  53.0549 356.3942 0001281  79.8974 280.2159 15.06411817310390
STARLINK-1263,45405,53.0558,0.0001442,15.06418451,546.1563817502274,548.1536359655829,1 45405U 20019AX  25304.52474954  .00011537  00000+0  79172-3 0  9999,2 45405  53.0558 356.4670 0001442 101.9250 258.1901 15.06418451310393
STARLINK-1265,45406,53.0551,0.000134,15.06406677,546.2631000059373,548.1190879351225,1 45406U 20019AY  25304.53213375  .00013597  00000+0  92980-3 0  9999,2 45406  53.0551 356.4301 0001340  72.8629 287.2507 15.06406677310393
STARLINK-1278,45408,53.0557,0.0001796,15.32995763,465.6507490473996,468.1094791947917,1 45408U 20019BA  25304.54915126  .00074055  00000+0  22800-2 0  9994,2 45408  53.0557  24.1493 0001796   0.2835 359.8166 15.32995763310015
STARLINK-1296,45412,53.0545,0.0001383,15.06415693,546.2056925171864,548.1212306248563,1 45412U 20019BE  25304.53580948  .00009906  00000+0  68269-3 0  9991,2 45412  53.0545 356.4099 0001383  90.1853 269.9294 15.06415693310394
STARLINK-1298,45413,53.0483,0.0008306,15.52592048,403.5237636941065,414.7988236195297,1 45413U 20019BF  25304.91668980  .00151925  00000+0  23881-2 0  9996,2 45413  53.0483 330.6938 0008306 314.1134 161.0557 15.52592048  5807
STARLINK-1309,45414,53.0551,0.0001337,15.06414526,546.2411250482455,548.0929513480596,1 45414U 20019BG  25304.41785899  .00011386  00000+0  78173-3 0  9992,2 45414  53.0551 356.9436 0001337 100.5369 259.5771 15.06414526310366
STARLINK-1316,45415,53.0561,0.0001413,15.06384062,546.2818473899952,548.2389646969432,1 45415U 20019BH  25304.84174096  .00002740  00000+0  20285-3 0  9996,2 45415  53.0561 355.0403 0001413 102.8611 257.2536 15.06384062310468
STARLINK-1318,45416,53.0519,0.0005362,15.60324058,383.0929565037086,390.34758944324585,1 45416U 20019BJ  25304.75219277  .00059382  00000+0  71305-3 0  9991,2 45416  53.0519 322.9948 0005362  36.5414 323.5963 15.60324058310897
STARLINK-1286,45417,53.0538,0.0001419,15.33955493,463.0538249655592,464.9956304638845,1 45417U 20019BK  25304.91668980  .01196754  00000+0  33045-1 0  9992,2 45417  53.0538  22.9528 0001419  71.3550 308.2029 15.33955493  5838
STARLINK-1308,45419,53.055,0.0001533,15.06391506,546.1759310224497,548.2992508720345,1 45419U 20019BM  25304.61045059  .00000005  00000+0  19271-4 0  9997,2 45419  53.0550  26.0765 0001533 101.7787 258.3374 15.06391506310015
STARLINK-1329,45531,53.0551,0.0001332,15.06386723,546.3297884817721,548.17471217806,1 45531U 20025A   25304.38006676 -.00005516  00000+0 -35185-3 0  9990,2 45531  53.0551 327.1128 0001332  75.6999 284.4138 15.06386723305602
STARLINK-1338,45532,53.0553,0.0001464,15.06395645,546.2110324352461,548.2387784011526,1 45532U 20025B   25304.39114507  .00002009  00000+0  15373-3 0  9994,2 45532  53.0553 327.0611 0001464  82.3590 277.7565 15.06395645305601
STARLINK-1350,45535,53.0731,0.0001636,15.32241461,468.0061911995044,470.2466157851277,1 45535U 20025E   25304.22417480  .00016388  00000+0  52969-3 0  9992,2 45535  53.0731 279.4395 0001636  64.2594 295.8575 15.32241461306287
STARLINK-1362,45538,53.0563,0.0001469,15.06399595,546.1954653197208,548.2301330907276,1 45538U 20025H   25304.75506634  .00000805  00000+0  72914-4 0  9993,2 45538  53.0563 325.1471 0001469 100.5998 259.5156 15.06399595305669
STARLINK-1368,45540,53.0545,0.0001364,15.06406621,546.246650825773,548.1358803766288,1 45540U 20025K   25304.75972525  .00005002  00000+0  35441-3 0  9999,2 45540  53.0545 325.4047 0001364 101.2515 258.8627 15.06406621305654
STARLINK-1371,45542,53.0543,0.0001581,15.06410691,546.0838993301732,548.2736841835267,1 45542U 20025M   25304.79658703  .00003117  00000+0  22799-3 0  9991,2 45542  53.0543 325.2432 0001581  77.0574 283.0592 15.06410691305660
STARLINK-1372,45543,53.0544,0.0001348,15.06399094,546.2807973392646,548.1478720590994,1 45543U 20025N   25304.76710181  .00001904  00000+0  14671-3 0  9990,2 45543  53.0544 325.3757 0001348  94.6512 265.4631 15.06399094304751
STARLINK-1373,45544,53.0548,0.0001469,15.06397446,546.2020507384495,548.2367204445363,1 45544U 20025P   25304.38745763 -.00000109  00000+0  11611-4 0  9992,2 45544  53.0548 327.0792 0001469  96.0401 264.0756 15.06397446305608
STARLINK-1294,45551,53.0485,0.0008345,15.59780533,382.6451296044279,393.9382991287057,1 45551U 20025W   25304.91668980  .00055265  00000+0  67769-3 0  9990,2 45551  53.0485 257.6754 0008345  55.7099 152.4361 15.59780533  5988
STARLINK-1325,45554,53.055,0.0001561,15.61207494,383.1124295138434,385.22362114275165,1 45554U 20025Z   25304.91668980  .00147490  00000+0  16855-2 0  9994,2 45554  53.0550 250.6152 0001561 112.1610 275.4456 15.61207494  5860
STARLINK-1327,45555,53.057,0.0001841,15.0640416,545.9238538444852,548.4737624890522,1 45555U 20025AA  25304.29346198  .00001291  00000+0  10557-3 0  9992,2 45555  53.0570 307.4967 0001841  99.9459 260.1737 15.06404160305866
STARLINK-1356,45564,53.0563,0.0001599,15.06397956,546.1104582748512,548.3251867470908,1 45564U 20025AK  25304.29715073 -.00000956  00000+0 -45271-4 0  9995,2 45564  53.0563 307.4811 0001599 103.8459 256.2708 15.06397956305869
STARLINK-1357,45565,53.0614,0.0007475,15.32131745,464.33471434184594,474.57186182252826,1 45565U 20025AL  25304.26197934  .00101533  00000+0  31937-2 0  9996,2 45565  53.0614 292.7356 0007475 353.4608   6.6294 15.32131745306077
STARLINK-1361,45567,53.055,0.0001613,15.06394664,546.1108506977116,548.3449734183423,1 45567U 20025AN  25304.71366138  .00000875  00000+0  77671-4 0  9996,2 45567  53.0550 305.6127 0001613  85.5146 274.6028 15.06394664305934
STARLINK-1363,45568,53.054,0.0001647,15.40927594,442.24687447519227,444.4938790050901,1 45568U 20025AP  25304.91668980  .00134902  00000+0  31827-2 0  9999,2 45568  53.0540 302.2289 0001647  92.8125 161.7995 15.40927594  5737
STARLINK-1366,45569,53.0523,0.0001699,15.39593119,446.1519546336176,448.4712420673359,1 45569U 20025AQ  25304.91668980  .00128141  00000+0  31625-2 0  9994,2 45569  53.0523 301.6812 0001699  82.0346  28.5374 15.39593119  5840
